SARAL
1 39086U 13009A   18093.90951209 -.00000017  00000-0  98461-5 0  9997
2 39086  98.5407 281.9583 0002219 101.9614 258.1819 14.32011418266714
